[{"OBJECT_NAME":"STARLINK-2001","OBJECT_ID":"2021-009BA","EPOCH":"2026-03-09T22:00:01.999584","MEAN_MOTION":15.51033089,"ECCENTRICITY":0.00052542,"INCLINATION":53.0495,"RA_OF_ASC_NODE":20.4797,"ARG_OF_PERICENTER":112.3362,"MEAN_ANOMALY":153.3998,"EPHEMERIS_TYPE":0,"CLASSIFICATION_TYPE":"U","NORAD_CAT_ID":47596,"ELEMENT_SET_NO":999,"REV_AT_EPOCH":554,"BSTAR":0.0019509967,"MEAN_MOTION_DOT":0.00116668,"MEAN_MOTION_DDOT":0},{"OBJECT_NAME":"STARLINK-3325","OBJECT_ID":"2022-001AS","EPOCH":"2026-03-10T00:00:02.999808","MEAN_MOTION":15.49042416,"ECCENTRICITY":9.248e-5,"INCLINATION":53.2172,"RA_OF_ASC_NODE":170.6048,"ARG_OF_PERICENTER":75.72,"MEAN_ANOMALY":185.393,"EPHEMERIS_TYPE":0,"CLASSIFICATION_TYPE":"U","NORAD_CAT_ID":50843,"ELEMENT_SET_NO":999,"REV_AT_EPOCH":580,"BSTAR":0.0043683028,"MEAN_MOTION_DOT":0.00248028,"MEAN_MOTION_DDOT":0}]
